STARLINK-30207
1 57407U 23102D   26061.16668981  .00071225  00000+0  36247-2 0  9991
2 57407  42.9983 276.0363 0002088 283.7085  90.2447 15.15929469  5820
STARLINK-30935
1 58455U 23183U   26061.16668981  .02483725  00000+0  11383+0 0  9999
2 58455  43.0002  83.8350 0000979 249.9877 225.2772 15.15918243  5715
